{
  "type": "FeatureCollection",
  "features": [
    {
      "type": "Feature",
      "properties": {
        "norad_id": 66794,
        "name": "STARLINK-36062",
        "group": "last-30-days",
        "lat": 26.348849983462184,
        "lon": -116.64717001241446,
        "alt_km": 364.1612733305137,
        "timestamp": "2025-12-19T10:49:59.922972+00:00",
        "meta_object_name": "STARLINK-36062",
        "meta_object_id": "2025-278D",
        "meta_epoch": "2025-12-19T00:00:02.000160",
        "meta_mean_motion": 15.68844621,
        "meta_eccentricity": 0.00015937,
        "meta_inclination": 42.9989,
        "meta_ra_of_asc_node": 213.9533,
        "meta_arg_of_pericenter": 265.531,
        "meta_mean_anomaly": 104.3154,
        "meta_ephemeris_type": 0,
        "meta_classification_type": "U",
        "meta_norad_cat_id": 66794,
        "meta_element_set_no": 999,
        "meta_rev_at_epoch": 396,
        "meta_bstar": -0.017960822,
        "meta_mean_motion_dot": -0.01883691,
        "meta_mean_motion_ddot": 0,
        "tle_line1": "1 66794U 25278D   25353.00002315 -.01883691  00000+0 -17961-1 0  9997",
        "tle_line2": "2 66794  42.9989 213.9533 0001593 265.5310 104.3154 15.68844621  3962"
      },
      "geometry": {
        "type": "Point",
        "coordinates": [
          -116.64717001241446,
          26.348849983462184
        ]
      }
    },
    {
      "type": "Feature",
      "properties": {
        "norad_id": 66795,
        "name": "STARLINK-36047",
        "group": "last-30-days",
        "lat": 28.52104037134155,
        "lon": -113.09023827595806,
        "alt_km": 363.78408919505637,
        "timestamp": "2025-12-19T10:49:59.922985+00:00",
        "meta_object_name": "STARLINK-36047",
        "meta_object_id": "2025-278E",
        "meta_epoch": "2025-12-19T00:00:02.000160",
        "meta_mean_motion": 15.68861061,
        "meta_eccentricity": 0.00015934,
        "meta_inclination": 42.9991,
        "meta_ra_of_asc_node": 213.944,
        "meta_arg_of_pericenter": 270.2574,
        "meta_mean_anomaly": 103.4109,
        "meta_ephemeris_type": 0,
        "meta_classification_type": "U",
        "meta_norad_cat_id": 66795,
        "meta_element_set_no": 999,
        "meta_rev_at_epoch": 386,
        "meta_bstar": -0.018126232,
        "meta_mean_motion_dot": -0.01900233,
        "meta_mean_motion_ddot": 0,
        "tle_line1": "1 66795U 25278E   25353.00002315 -.01900233  00000+0 -18126-1 0  9994",
        "tle_line2": "2 66795  42.9991 213.9440 0001593 270.2574 103.4109 15.68861061  3864"
      },
      "geometry": {
        "type": "Point",
        "coordinates": [
          -113.09023827595806,
          28.52104037134155
        ]
      }
    },
    {
      "type": "Feature",
      "properties": {
        "norad_id": 66796,
        "name": "STARLINK-35964",
        "group": "last-30-days",
        "lat": -34.89142043951884,
        "lon": 78.30238788184289,
        "alt_km": 330.06594075406974,
        "timestamp": "2025-12-19T10:49:59.922996+00:00",
        "meta_object_name": "STARLINK-35964",
        "meta_object_id": "2025-278F",
        "meta_epoch": "2025-12-19T00:00:02.000160",
        "meta_mean_motion": 15.8084481,
        "meta_eccentricity": 0.00015748,
        "meta_inclination": 42.9925,
        "meta_ra_of_asc_node": 212.5961,
        "meta_arg_of_pericenter": 270.3002,
        "meta_mean_anomaly": 274.7852,
        "meta_ephemeris_type": 0,
        "meta_classification_type": "U",
        "meta_norad_cat_id": 66796,
        "meta_element_set_no": 999,
        "meta_rev_at_epoch": 380,
        "meta_bstar": 0.00022880261,
        "meta_mean_motion_dot": 0.00045341,
        "meta_mean_motion_ddot": 0,
        "tle_line1": "1 66796U 25278F   25353.00002315  .00045341  00000+0  22880-3 0  9996",
        "tle_line2": "2 66796  42.9925 212.5961 0001574 270.3002 274.7852 15.80844810  3809"
      },
      "geometry": {
        "type": "Point",
        "coordinates": [
          78.30238788184289,
          -34.89142043951884
        ]
      }
    },
    {
      "type": "Feature",
      "properties": {
        "norad_id": 66797,
        "name": "STARLINK-36099",
        "group": "last-30-days",
        "lat": 30.59728387016655,
        "lon": -109.38518961264127,
        "alt_km": 363.45334571125113,
        "timestamp": "2025-12-19T10:49:59.923007+00:00",
        "meta_object_name": "STARLINK-36099",
        "meta_object_id": "2025-278G",
        "meta_epoch": "2025-12-19T00:00:02.000160",
        "meta_mean_motion": 15.68841391,
        "meta_eccentricity": 0.00016797,
        "meta_inclination": 42.9993,
        "meta_ra_of_asc_node": 213.9343,
        "meta_arg_of_pericenter": 274.854,
        "meta_mean_anomaly": 102.6636,
        "meta_ephemeris_type": 0,
        "meta_classification_type": "U",
        "meta_norad_cat_id": 66797,
        "meta_element_set_no": 999,
        "meta_rev_at_epoch": 402,
        "meta_bstar": -0.017923972,
        "meta_mean_motion_dot": -0.01880096,
        "meta_mean_motion_ddot": 0,
        "tle_line1": "1 66797U 25278G   25353.00002315 -.01880096  00000+0 -17924-1 0  9995",
        "tle_line2": "2 66797  42.9993 213.9343 0001679 274.8540 102.6636 15.68841391  4027"
      },
      "geometry": {
        "type": "Point",
        "coordinates": [
          -109.38518961264127,
          30.59728387016655
        ]
      }
    },
    {
      "type": "Feature",
      "properties": {
        "norad_id": 66798,
        "name": "STARLINK-36041",
        "group": "last-30-days",
        "lat": 31.593270679164053,
        "lon": -107.47771020014606,
        "alt_km": 363.36256933777986,
        "timestamp": "2025-12-19T10:49:59.923016+00:00",
        "meta_object_name": "STARLINK-36041",
        "meta_object_id": "2025-278H",
        "meta_epoch": "2025-12-19T00:00:02.000160",
        "meta_mean_motion": 15.68861091,
        "meta_eccentricity": 0.00016195,
        "meta_inclination": 42.9993,
        "meta_ra_of_asc_node": 213.929,
        "meta_arg_of_pericenter": 272.2545,
        "meta_mean_anomaly": 107.1667,
        "meta_ephemeris_type": 0,
        "meta_classification_type": "U",
        "meta_norad_cat_id": 66798,
        "meta_element_set_no": 999,
        "meta_rev_at_epoch": 380,
        "meta_bstar": -0.01814105,
        "meta_mean_motion_dot": -0.01901631,
        "meta_mean_motion_ddot": 0,
        "tle_line1": "1 66798U 25278H   25353.00002315 -.01901631  00000+0 -18141-1 0  9997",
        "tle_line2": "2 66798  42.9993 213.9290 0001619 272.2545 107.1667 15.68861091  3808"
      },
      "geometry": {
        "type": "Point",
        "coordinates": [
          -107.47771020014606,
          31.593270679164053
        ]
      }
    },
    {
      "type": "Feature",
      "properties": {
        "norad_id": 66799,
        "name": "STARLINK-36044",
        "group": "last-30-days",
        "lat": 32.56132142742124,
        "lon": -105.52641531183781,
        "alt_km": 363.2095050484877,
        "timestamp": "2025-12-19T10:49:59.923026+00:00",
        "meta_object_name": "STARLINK-36044",
        "meta_object_id": "2025-278J",
        "meta_epoch": "2025-12-19T00:00:02.000160",
        "meta_mean_motion": 15.68859385,
        "meta_eccentricity": 0.00015983,
        "meta_inclination": 42.9995,
        "meta_ra_of_asc_node": 213.9247,
        "meta_arg_of_pericenter": 272.9896,
        "meta_mean_anomaly": 108.3492,
        "meta_ephemeris_type": 0,
        "meta_classification_type": "U",
        "meta_norad_cat_id": 66799,
        "meta_element_set_no": 999,
        "meta_rev_at_epoch": 396,
        "meta_bstar": -0.018112385,
        "meta_mean_motion_dot": -0.0189883,
        "meta_mean_motion_ddot": 0,
        "tle_line1": "1 66799U 25278J   25353.00002315 -.01898830  00000+0 -18112-1 0  9992",
        "tle_line2": "2 66799  42.9995 213.9247 0001598 272.9896 108.3492 15.68859385  3964"
      },
      "geometry": {
        "type": "Point",
        "coordinates": [
          -105.52641531183781,
          32.56132142742124
        ]
      }
    },
    {
      "type": "Feature",
      "properties": {
        "norad_id": 66800,
        "name": "STARLINK-35996",
        "group": "last-30-days",
        "lat": 34.401894300448,
        "lon": -101.4991944242876,
        "alt_km": 363.015145486439,
        "timestamp": "2025-12-19T10:49:59.923037+00:00",
        "meta_object_name": "STARLINK-35996",
        "meta_object_id": "2025-278K",
        "meta_epoch": "2025-12-19T00:00:02.000160",
        "meta_mean_motion": 15.68859441,
        "meta_eccentricity": 0.00016553,
        "meta_inclination": 42.9993,
        "meta_ra_of_asc_node": 213.9148,
        "meta_arg_of_pericenter": 272.4079,
        "meta_mean_anomaly": 112.764,
        "meta_ephemeris_type": 0,
        "meta_classification_type": "U",
        "meta_norad_cat_id": 66800,
        "meta_element_set_no": 999,
        "meta_rev_at_epoch": 375,
        "meta_bstar": -0.01811122,
        "meta_mean_motion_dot": -0.01898769,
        "meta_mean_motion_ddot": 0,
        "tle_line1": "1 66800U 25278K   25353.00002315 -.01898769  00000+0 -18111-1 0  9995",
        "tle_line2": "2 66800  42.9993 213.9148 0001655 272.4079 112.7640 15.68859441  3751"
      },
      "geometry": {
        "type": "Point",
        "coordinates": [
          -101.4991944242876,
          34.401894300448
        ]
      }
    }
  ]
}